ATLAS CENTAUR 2         
1 00694U 63047A   26008.16717302  .00001578  00000+0  17823-3 0  9996
2 00694  30.3561 173.8238 0548716 266.9944  86.7762 14.11880083123064
THOR AGENA D R/B        
1 00733U 64002A   26008.30702967  .00000268  00000+0  11278-3 0  9992
2 00733  99.1220  18.3627 0033843  74.7398 285.7522 14.33978893229643
SL-3 R/B                
1 00877U 64053B   26008.33161556  .00000377  00000+0  97510-4 0  9998
2 00877  65.0767 148.1836 0076126 311.5691  47.8898 14.61301101257976
SL-8 R/B                
1 02802U 67045B   26008.29866756  .00000411  00000+0  12128-3 0  9991
2 02802  74.0117 100.8707 0063087 123.3493 237.3726 14.45568491 80292
SL-8 R/B                
1 03230U 68040B   26008.27168032  .00004133  00000+0  30983-3 0  9997
2 03230  74.0315  77.1011 0026418 274.9395  84.8777 15.02758713 80937
OAO 2                   
1 03597U 68110A   26008.00415819  .00000257  00000+0  74347-4 0  9996
2 03597  34.9923 244.0360 0004832  68.3588 291.7617 14.47263964 10303
ISIS 1                  
1 03669U 69009A   26007.90703804  .00000370  00000+0  26206-3 0  9992
2 03669  88.4514 161.9354 1707521 211.8276 136.7523 11.30372953341666
SERT 2                  
1 04327U 70009A   26008.32738723  .00000039  00000+0  11030-3 0  9992
2 04327  99.2684 314.7486 0004501 328.8974 146.2230 13.58722119771697
SL-3 R/B                
1 05118U 71028B   26008.31070779  .00039831  00000+0  55761-3 0  9993
2 05118  81.2382 126.3297 0018343 145.2652 214.9801 15.56413825979263
ASTEX 1                 
1 05560U 71089A   26008.33072795  .00000756  00000+0  19273-3 0  9995
2 05560  92.7155 132.2254 0013493 291.3754  68.6011 14.50683788853555
SL-8 R/B                
1 05730U 71119B   26008.22790131  .00009186  00000+0  47731-3 0  9993
2 05730  73.8892 288.6054 0556887 267.5469  86.1852 14.36391789646800
OAO 3 (COPERNICUS)      
1 06153U 72065A   26008.16020334  .00000402  00000+0  87043-4 0  9991
2 06153  35.0058 282.1615 0006267  19.4924 126.1286 14.59936278837348
