CCSDS_OMM_VERS = 2.0
CREATION_DATE  = 
ORIGINATOR     = 

OBJECT_NAME    = ATLAS CENTAUR 2
OBJECT_ID      = 1963-047A
CENTER_NAME    = EARTH
REF_FRAME      = TEME
TIME_SYSTEM    = UTC
MEAN_ELEMENT_THEORY = SGP/SGP4

EPOCH          = 2026-01-08T04:00:43.748928
MEAN_MOTION    = 14.11880083
ECCENTRICITY   = .05487162
INCLINATION    = 30.3561
RA_OF_ASC_NODE = 173.8238
ARG_OF_PERICENTER = 266.9944
MEAN_ANOMALY   = 86.7762

EPHEMERIS_TYPE = 0
CLASSIFICATION_TYPE = U
NORAD_CAT_ID   = 694
ELEMENT_SET_NO = 999
REV_AT_EPOCH   = 12306
BSTAR          = .17822722E-3
MEAN_MOTION_DOT = .1578E-4
MEAN_MOTION_DDOT = 0

CCSDS_OMM_VERS = 2.0
CREATION_DATE  = 
ORIGINATOR     = 

OBJECT_NAME    = THOR AGENA D R/B
OBJECT_ID      = 1964-002A
CENTER_NAME    = EARTH
REF_FRAME      = TEME
TIME_SYSTEM    = UTC
MEAN_ELEMENT_THEORY = SGP/SGP4

EPOCH          = 2026-01-08T07:22:07.363488
MEAN_MOTION    = 14.33978893
ECCENTRICITY   = .00338432
INCLINATION    = 99.1220
RA_OF_ASC_NODE = 18.3627
ARG_OF_PERICENTER = 74.7398
MEAN_ANOMALY   = 285.7522

EPHEMERIS_TYPE = 0
CLASSIFICATION_TYPE = U
NORAD_CAT_ID   = 733
ELEMENT_SET_NO = 999
REV_AT_EPOCH   = 22964
BSTAR          = .11277527E-3
MEAN_MOTION_DOT = .268E-5
MEAN_MOTION_DDOT = 0

CCSDS_OMM_VERS = 2.0
CREATION_DATE  = 
ORIGINATOR     = 

OBJECT_NAME    = SL-3 R/B
OBJECT_ID      = 1964-053B
CENTER_NAME    = EARTH
REF_FRAME      = TEME
TIME_SYSTEM    = UTC
MEAN_ELEMENT_THEORY = SGP/SGP4

EPOCH          = 2026-01-08T07:57:31.584384
MEAN_MOTION    = 14.61301101
ECCENTRICITY   = .00761261
INCLINATION    = 65.0767
RA_OF_ASC_NODE = 148.1836
ARG_OF_PERICENTER = 311.5691
MEAN_ANOMALY   = 47.8898

EPHEMERIS_TYPE = 0
CLASSIFICATION_TYPE = U
NORAD_CAT_ID   = 877
ELEMENT_SET_NO = 999
REV_AT_EPOCH   = 25797
BSTAR          = .97509871E-4
MEAN_MOTION_DOT = .377E-5
MEAN_MOTION_DDOT = 0

CCSDS_OMM_VERS = 2.0
CREATION_DATE  = 
ORIGINATOR     = 

OBJECT_NAME    = SL-8 R/B
OBJECT_ID      = 1967-045B
CENTER_NAME    = EARTH
REF_FRAME      = TEME
TIME_SYSTEM    = UTC
MEAN_ELEMENT_THEORY = SGP/SGP4

EPOCH          = 2026-01-08T07:10:04.877184
MEAN_MOTION    = 14.45568491
ECCENTRICITY   = .00630876
INCLINATION    = 74.0117
RA_OF_ASC_NODE = 100.8707
ARG_OF_PERICENTER = 123.3493
MEAN_ANOMALY   = 237.3726

EPHEMERIS_TYPE = 0
CLASSIFICATION_TYPE = U
NORAD_CAT_ID   = 2802
ELEMENT_SET_NO = 999
REV_AT_EPOCH   = 8029
BSTAR          = .12128433E-3
MEAN_MOTION_DOT = .411E-5
MEAN_MOTION_DDOT = 0

CCSDS_OMM_VERS = 2.0
CREATION_DATE  = 
ORIGINATOR     = 

OBJECT_NAME    = SL-8 R/B
OBJECT_ID      = 1968-040B
CENTER_NAME    = EARTH
REF_FRAME      = TEME
TIME_SYSTEM    = UTC
MEAN_ELEMENT_THEORY = SGP/SGP4

EPOCH          = 2026-01-08T06:31:13.179648
MEAN_MOTION    = 15.02758713
ECCENTRICITY   = .00264183
INCLINATION    = 74.0315
RA_OF_ASC_NODE = 77.1011
ARG_OF_PERICENTER = 274.9395
MEAN_ANOMALY   = 84.8777

EPHEMERIS_TYPE = 0
CLASSIFICATION_TYPE = U
NORAD_CAT_ID   = 3230
ELEMENT_SET_NO = 999
REV_AT_EPOCH   = 8093
BSTAR          = .30982903E-3
MEAN_MOTION_DOT = .4133E-4
MEAN_MOTION_DDOT = 0

CCSDS_OMM_VERS = 2.0
CREATION_DATE  = 
ORIGINATOR     = 

OBJECT_NAME    = OAO 2
OBJECT_ID      = 1968-110A
CENTER_NAME    = EARTH
REF_FRAME      = TEME
TIME_SYSTEM    = UTC
MEAN_ELEMENT_THEORY = SGP/SGP4

EPOCH          = 2026-01-08T00:05:59.267616
MEAN_MOTION    = 14.47263964
ECCENTRICITY   = .00048321
INCLINATION    = 34.9923
RA_OF_ASC_NODE = 244.0360
ARG_OF_PERICENTER = 68.3588
MEAN_ANOMALY   = 291.7617

EPHEMERIS_TYPE = 0
CLASSIFICATION_TYPE = U
NORAD_CAT_ID   = 3597
ELEMENT_SET_NO = 999
REV_AT_EPOCH   = 1030
BSTAR          = .74347227E-4
MEAN_MOTION_DOT = .257E-5
MEAN_MOTION_DDOT = 0

CCSDS_OMM_VERS = 2.0
CREATION_DATE  = 
ORIGINATOR     = 

OBJECT_NAME    = ISIS 1
OBJECT_ID      = 1969-009A
CENTER_NAME    = EARTH
REF_FRAME      = TEME
TIME_SYSTEM    = UTC
MEAN_ELEMENT_THEORY = SGP/SGP4

EPOCH          = 2026-01-07T21:46:08.086656
MEAN_MOTION    = 11.30372953
ECCENTRICITY   = .1707521
INCLINATION    = 88.4514
RA_OF_ASC_NODE = 161.9354
ARG_OF_PERICENTER = 211.8276
MEAN_ANOMALY   = 136.7523

EPHEMERIS_TYPE = 0
CLASSIFICATION_TYPE = U
NORAD_CAT_ID   = 3669
ELEMENT_SET_NO = 999
REV_AT_EPOCH   = 34166
BSTAR          = .26206E-3
MEAN_MOTION_DOT = .37E-5
MEAN_MOTION_DDOT = 0

CCSDS_OMM_VERS = 2.0
CREATION_DATE  = 
ORIGINATOR     = 

OBJECT_NAME    = SERT 2
OBJECT_ID      = 1970-009A
CENTER_NAME    = EARTH
REF_FRAME      = TEME
TIME_SYSTEM    = UTC
MEAN_ELEMENT_THEORY = SGP/SGP4

EPOCH          = 2026-01-08T07:51:26.256672
MEAN_MOTION    = 13.58722119
ECCENTRICITY   = .00045015
INCLINATION    = 99.2684
RA_OF_ASC_NODE = 314.7486
ARG_OF_PERICENTER = 328.8974
MEAN_ANOMALY   = 146.2230

EPHEMERIS_TYPE = 0
CLASSIFICATION_TYPE = U
NORAD_CAT_ID   = 4327
ELEMENT_SET_NO = 999
REV_AT_EPOCH   = 77169
BSTAR          = .11030492E-3
MEAN_MOTION_DOT = .39E-6
MEAN_MOTION_DDOT = 0

CCSDS_OMM_VERS = 2.0
CREATION_DATE  = 
ORIGINATOR     = 

OBJECT_NAME    = SL-3 R/B
OBJECT_ID      = 1971-028B
CENTER_NAME    = EARTH
REF_FRAME      = TEME
TIME_SYSTEM    = UTC
MEAN_ELEMENT_THEORY = SGP/SGP4

EPOCH          = 2026-01-08T07:27:25.153056
MEAN_MOTION    = 15.56413825
ECCENTRICITY   = .00183434
INCLINATION    = 81.2382
RA_OF_ASC_NODE = 126.3297
ARG_OF_PERICENTER = 145.2652
MEAN_ANOMALY   = 214.9801

EPHEMERIS_TYPE = 0
CLASSIFICATION_TYPE = U
NORAD_CAT_ID   = 5118
ELEMENT_SET_NO = 999
REV_AT_EPOCH   = 97926
BSTAR          = .55761339E-3
MEAN_MOTION_DOT = .39831E-3
MEAN_MOTION_DDOT = 0

CCSDS_OMM_VERS = 2.0
CREATION_DATE  = 
ORIGINATOR     = 

OBJECT_NAME    = ASTEX 1
OBJECT_ID      = 1971-089A
CENTER_NAME    = EARTH
REF_FRAME      = TEME
TIME_SYSTEM    = UTC
MEAN_ELEMENT_THEORY = SGP/SGP4

EPOCH          = 2026-01-08T07:56:14.894880
MEAN_MOTION    = 14.50683788
ECCENTRICITY   = .00134938
INCLINATION    = 92.7155
RA_OF_ASC_NODE = 132.2254
ARG_OF_PERICENTER = 291.3754
MEAN_ANOMALY   = 68.6011

EPHEMERIS_TYPE = 0
CLASSIFICATION_TYPE = U
NORAD_CAT_ID   = 5560
ELEMENT_SET_NO = 999
REV_AT_EPOCH   = 85355
BSTAR          = .19273333E-3
MEAN_MOTION_DOT = .756E-5
MEAN_MOTION_DDOT = 0

CCSDS_OMM_VERS = 2.0
CREATION_DATE  = 
ORIGINATOR     = 

OBJECT_NAME    = SL-8 R/B
OBJECT_ID      = 1971-119B
CENTER_NAME    = EARTH
REF_FRAME      = TEME
TIME_SYSTEM    = UTC
MEAN_ELEMENT_THEORY = SGP/SGP4

EPOCH          = 2026-01-08T05:28:10.673184
MEAN_MOTION    = 14.36391789
ECCENTRICITY   = .05568879
INCLINATION    = 73.8892
RA_OF_ASC_NODE = 288.6054
ARG_OF_PERICENTER = 267.5469
MEAN_ANOMALY   = 86.1852

EPHEMERIS_TYPE = 0
CLASSIFICATION_TYPE = U
NORAD_CAT_ID   = 5730
ELEMENT_SET_NO = 999
REV_AT_EPOCH   = 64680
BSTAR          = .47731046E-3
MEAN_MOTION_DOT = .9186E-4
MEAN_MOTION_DDOT = 0

CCSDS_OMM_VERS = 2.0
CREATION_DATE  = 
ORIGINATOR     = 

OBJECT_NAME    = OAO 3 (COPERNICUS)
OBJECT_ID      = 1972-065A
CENTER_NAME    = EARTH
REF_FRAME      = TEME
TIME_SYSTEM    = UTC
MEAN_ELEMENT_THEORY = SGP/SGP4

EPOCH          = 2026-01-08T03:50:41.568576
MEAN_MOTION    = 14.59936278
ECCENTRICITY   = .00062677
INCLINATION    = 35.0058
RA_OF_ASC_NODE = 282.1615
ARG_OF_PERICENTER = 19.4924
MEAN_ANOMALY   = 126.1286

EPHEMERIS_TYPE = 0
CLASSIFICATION_TYPE = U
NORAD_CAT_ID   = 6153
ELEMENT_SET_NO = 999
REV_AT_EPOCH   = 83734
BSTAR          = .87043434E-4
MEAN_MOTION_DOT = .402E-5
MEAN_MOTION_DDOT = 0

